GAOFEN-11 01            
1 43585U 18063A   26163.28335031  .00012630  00000+0  18877-3 0  9991
2 43585  97.1299 230.1767 0003675  16.5469 343.5905 15.55143866439584
ICESAT-2                
1 43613U 18070A   26163.30951365  .00006023  00000+0  21917-3 0  9996
2 43613  92.0069 289.6617 0005752 116.2794 243.9047 15.28194934431714
HYSIS                   
1 43719U 18096A   26163.27160582  .00000754  00000+0  10988-3 0  9991
2 43719  97.9842 230.0579 0001793 110.4937 249.6467 14.78684791406694
KAZSTSAT                
1 43783U 18099AB  26163.02717748  .00001196  00000+0  10099-3 0  9994
2 43783  97.4264 195.1902 0008185  83.1902 277.0253 14.99850988410531
SAUDISAT 5A             
1 43831U 18102A   26163.25335365  .00005889  00000+0  21794-3 0  9996
2 43831  97.3076 224.9291 0010708 144.3752 215.8204 15.27998022414921
SAUDISAT 5B             
1 43833U 18102C   26163.27303057  .00005464  00000+0  20082-3 0  9991
2 43833  97.3184 228.0092 0011358 146.6207 213.5751 15.28257618415045
GAOFEN-10R              
1 44622U 19066A   26163.29600331  .00001094  00000+0  14116-3 0  9991
2 44622  98.0496 116.8396 0006355 140.8356 219.3318 14.83050805361658
CARTOSAT-3              
1 44804U 19081A   26163.21757801  .00004118  00000+0  19827-3 0  9991
2 44804  97.4313 225.1640 0012711 164.4971 195.6655 15.19247886362710
GAOFEN-12 01            
1 44819U 19082A   26163.28096985  .00000383  00000+0  56738-4 0  9997
2 44819  97.8107 169.7899 0002402  75.8567 284.2913 14.80454787353362
CSG-1                   
1 44873U 19092A   26162.44795788  .00000333  00000+0  48405-4 0  9999
2 44873  97.8887 346.1336 0001445  90.9927 269.1452 14.82160067350621
NEMO-HD                 
1 46277U 20061F   26163.20599644  .00009691  00000+0  21095-3 0  9996
2 46277  97.1929 225.2090 0002461  86.7651 273.3879 15.44494372321212
SENTINEL-6A             
1 46984U 20086A   26163.24477584 -.00000039  00000+0  95108-4 0  9995
2 46984  66.0390 145.3178 0007944 270.2774  89.7331 12.80929959259695
CAS500-1                
1 47932U 21022A   26163.25786674  .00006762  00000+0  31559-3 0  9991
2 47932  97.3913  58.6111 0004152 325.4488  34.6477 15.20152322290013
GAOFEN-12 02            
1 48079U 21026A   26163.29150341  .00000360  00000+0  54177-4 0  9998
2 48079  97.9920 161.4921 0003418 243.2400 116.8463 14.80292690281035
PLEIADES NEO 3          
1 48268U 21034A   26163.25574514  .00001036  00000+0  13827-3 0  9992
2 48268  97.8931 238.0933 0001424  89.4117 270.7259 14.81677536276922
PLEIADES NEO 4          
1 49070U 21073E   26163.28951716  .00000668  00000+0  91504-4 0  9992
2 49070  97.8934 238.1221 0001341  86.0320 274.1046 14.81677899260641
LANDSAT 9               
1 49260U 21088A   26163.11491908  .00000248  00000+0  65102-4 0  9992
2 49260  98.2279 233.3535 0001439  87.6900 272.4463 14.57107090250268
CSG-2                   
1 51444U 22008A   26163.29183686  .00000401  00000+0  56891-4 0  9998
2 51444  97.8889 346.9608 0001457  85.0221 275.1158 14.82153704235868
GAOFEN-12 03            
1 52912U 22069A   26163.25292898  .00001038  00000+0  14384-3 0  9995
2 52912  97.8290  51.2476 0001862 107.3572 252.7844 14.80027341213887
SWOT                    
1 54754U 22173A   26163.20081582  .00000122  00000+0  84473-4 0  9998
2 54754  77.6109  42.0416 0000249  97.4676 262.6504 14.00169052178456
GAOFEN-12 04            
1 57654U 23123A   26163.27025833  .00000953  00000+0  13216-3 0  9998
2 57654  97.9125  81.3586 0001799  85.1431 274.9987 14.80220010151901
PARS 1                  
1 59065U 24039Q   26163.26489738  .00011263  00000+0  23523-3 0  9998
2 59065  97.4814 144.0295 0011183 126.2997 233.9286 15.45624745127887
RESURS-P 4              
1 59371U 24061A   26163.29949439  .00003040  00000+0  10054-3 0  9994
2 59371  97.2747 111.2834 0001807 131.5978 228.5419 15.32104487123016
LEGION 1                
1 59625U 24081A   26163.21278494  .00003805  00000+0  19780-3 0  9990
2 59625  97.5021 241.1227 0010005  34.3504 325.8374 15.16634217116788
LEGION 2                
1 59626U 24081B   26163.24269702  .00003794  00000+0  19732-3 0  9990
2 59626  97.5021 241.2498 0011253   1.5212 358.6053 15.16612517116796
ALOS-4 (DAICHI-4)       
1 60182U 24123A   26162.88314684  .00001271  00000+0  17705-3 0  9991
2 60182  97.9243 260.1312 0001633  96.6818 263.4580 14.79476910105090
LEGION 3                
1 60452U 24146A   26163.18893272  .00004024  00000+0  21931-3 0  9990
2 60452  45.0023  57.3602 0007135 139.8399 220.3008 15.16003825101260
LEGION 4                
1 60453U 24146B   26163.25787834  .00003121  00000+0  17303-3 0  9990
2 60453  45.0000 148.9016 0014091 282.7000  77.2303 15.15996006100120
SENTINEL-2C             
1 60989U 24157A   26163.20750865  .00000085  00000+0  49170-4 0  9999
2 60989  98.5691 238.0598 0001100  80.1558 279.9749 14.30816532 92276
IONOSFERA-M 1           
1 61735U 24199A   26163.27097536  .00000052  00000+0  42772-4 0  9996
2 61735  98.7180  36.4950 0001812 116.7735 243.3628 14.22753427127001
