OBJECT_NAME,OBJECT_ID,EPOCH,MEAN_MOTION,ECCENTRICITY,INCLINATION,RA_OF_ASC_NODE,ARG_OF_PERICENTER,MEAN_ANOMALY,EPHEMERIS_TYPE,CLASSIFICATION_TYPE,NORAD_CAT_ID,ELEMENT_SET_NO,REV_AT_EPOCH,BSTAR,MEAN_MOTION_DOT,MEAN_MOTION_DDOT
GAOFEN-11 01,2018-063A,2026-06-12T06:48:01.466784,15.55143866,.00036759,97.1299,230.1767,16.5469,343.5905,0,U,43585,999,43958,.18877437E-3,.1263E-3,0
ICESAT-2,2018-070A,2026-06-12T07:25:41.979360,15.28194934,.0005752,92.0069,289.6617,116.2794,243.9047,0,U,43613,999,43171,.21916618E-3,.6023E-4,0
HYSIS,2018-096A,2026-06-12T06:31:06.742848,14.78684791,.00017937,97.9842,230.0579,110.4937,249.6467,0,U,43719,999,40669,.10988336E-3,.754E-5,0
KAZSTSAT,2018-099AB,2026-06-12T00:39:08.134272,14.99850988,.00081852,97.4264,195.1902,83.1902,277.0253,0,U,43783,999,41053,.10099362E-3,.1196E-4,0
SAUDISAT 5A,2018-102A,2026-06-12T06:04:49.755360,15.27998022,.00107086,97.3076,224.9291,144.3752,215.8204,0,U,43831,999,41492,.21793995E-3,.5889E-4,0
SAUDISAT 5B,2018-102C,2026-06-12T06:33:09.841248,15.28257618,.00113587,97.3184,228.0092,146.6207,213.5751,0,U,43833,999,41504,.20082483E-3,.5464E-4,0
GAOFEN-10R,2019-066A,2026-06-12T07:06:14.685984,14.83050805,.00063559,98.0496,116.8396,140.8356,219.3318,0,U,44622,999,36165,.14116328E-3,.1094E-4,0
CARTOSAT-3,2019-081A,2026-06-12T05:13:18.740064,15.19247886,.00127113,97.4313,225.1640,164.4971,195.6655,0,U,44804,999,36271,.19826938E-3,.4118E-4,0
GAOFEN-12 01,2019-082A,2026-06-12T06:44:35.795040,14.80454787,.00024023,97.8107,169.7899,75.8567,284.2913,0,U,44819,999,35336,.56737618E-4,.383E-5,0
CSG-1,2019-092A,2026-06-11T10:45:03.560832,14.82160067,.0001445,97.8887,346.1336,90.9927,269.1452,0,U,44873,999,35062,.48405E-4,.333E-5,0
NEMO-HD,2020-061F,2026-06-12T04:56:38.092416,15.44494372,.00024612,97.1929,225.2090,86.7651,273.3879,0,U,46277,999,32121,.21094618E-3,.9691E-4,0
SENTINEL-6A,2020-086A,2026-06-12T05:52:28.632576,12.80929959,.0007944,66.0390,145.3178,270.2774,89.7331,0,U,46984,999,25969,.95108164E-4,-.39E-6,0
CAS500-1,2021-022A,2026-06-12T06:11:19.686336,15.20152322,.00041521,97.3913,58.6111,325.4488,34.6477,0,U,47932,999,29001,.31559071E-3,.6762E-4,0
GAOFEN-12 02,2021-026A,2026-06-12T06:59:45.894624,14.80292690,.00034184,97.9920,161.4921,243.2400,116.8463,0,U,48079,999,28103,.54176804E-4,.36E-5,0
PLEIADES NEO 3,2021-034A,2026-06-12T06:08:16.380096,14.81677536,.00014245,97.8931,238.0933,89.4117,270.7259,0,U,48268,999,27692,.13826984E-3,.1036E-4,0
PLEIADES NEO 4,2021-073E,2026-06-12T06:56:54.282624,14.81677899,.00013418,97.8934,238.1221,86.0320,274.1046,0,U,49070,999,26064,.91503555E-4,.668E-5,0
LANDSAT 9,2021-088A,2026-06-12T02:45:29.008512,14.57107090,.00014393,98.2279,233.3535,87.6900,272.4463,0,U,49260,999,25026,.65102282E-4,.248E-5,0
CSG-2,2022-008A,2026-06-12T07:00:14.704704,14.82153704,.00014579,97.8889,346.9608,85.0221,275.1158,0,U,51444,999,23586,.5689109E-4,.401E-5,0
GAOFEN-12 03,2022-069A,2026-06-12T06:04:13.063872,14.80027341,.00018623,97.8290,51.2476,107.3572,252.7844,0,U,52912,999,21388,.1438425E-3,.1038E-4,0
SWOT,2022-173A,2026-06-12T04:49:10.486848,14.00169052,.00002492,77.6109,42.0416,97.4676,262.6504,0,U,54754,999,17845,.84472585E-4,.122E-5,0
GAOFEN-12 04,2023-123A,2026-06-12T06:29:10.319712,14.80220010,.00017992,97.9125,81.3586,85.1431,274.9987,0,U,57654,999,15190,.13216473E-3,.953E-5,0
PARS 1,2024-039Q,2026-06-12T06:21:27.133632,15.45624745,.00111832,97.4814,144.0295,126.2997,233.9286,0,U,59065,999,12788,.23522769E-3,.11263E-3,0
RESURS-P 4,2024-061A,2026-06-12T07:11:16.315296,15.32104487,.00018071,97.2747,111.2834,131.5978,228.5419,0,U,59371,999,12301,.10054358E-3,.304E-4,0
LEGION 1,2024-081A,2026-06-12T05:06:24.618816,15.16634217,.00100058,97.5021,241.1227,34.3504,325.8374,0,U,59625,999,11678,.19779626E-3,.3805E-4,0
LEGION 2,2024-081B,2026-06-12T05:49:29.022528,15.16612517,.00112533,97.5021,241.2498,1.5212,358.6053,0,U,59626,999,11679,.19732289E-3,.3794E-4,0
ALOS-4 (DAICHI-4),2024-123A,2026-06-11T21:11:43.886976,14.79476910,.00016336,97.9243,260.1312,96.6818,263.4580,0,U,60182,999,10509,.17705469E-3,.1271E-4,0
LEGION 3,2024-146A,2026-06-12T04:32:03.787008,15.16003825,.00071353,45.0023,57.3602,139.8399,220.3008,0,U,60452,999,10126,.2193148E-3,.4024E-4,0
LEGION 4,2024-146B,2026-06-12T06:11:20.688576,15.15996006,.00140919,45.0000,148.9016,282.7000,77.2303,0,U,60453,999,10012,.17303311E-3,.3121E-4,0
SENTINEL-2C,2024-157A,2026-06-12T04:58:48.747360,14.30816532,.00011004,98.5691,238.0598,80.1558,279.9749,0,U,60989,999,9227,.49169759E-4,.85E-6,0
IONOSFERA-M 1,2024-199A,2026-06-12T06:30:12.271104,14.22753427,.0001812,98.7180,36.4950,116.7735,243.3628,0,U,61735,999,12700,.42771757E-4,.52E-6,0
